{
    "links": {
        "self": "http://www.neowsapp.com/rest/v1/neo/3893328?api_key=iIulBulltgU6a56xZRHN4H3l9WmuAYTsLGpBGhQ2"
    },
    "id": "3893328",
    "neo_reference_id": "3893328",
    "name": "(2019 WN)",
    "designation": "2019 WN",
    "nasa_jpl_url": "http://ssd.jpl.nasa.gov/sbdb.cgi?sstr=3893328",
    "absolute_magnitude_h": 25.2,
    "estimated_diameter": {
        "kilometers": {
            "estimated_diameter_min": 0.0242412481,
            "estimated_diameter_max": 0.0542050786
        },
        "meters": {
            "estimated_diameter_min": 24.2412481101,
            "estimated_diameter_max": 54.2050786336
        },
        "miles": {
            "estimated_diameter_min": 0.0150628086,
            "estimated_diameter_max": 0.0336814639
        },
        "feet": {
            "estimated_diameter_min": 79.5316564495,
            "estimated_diameter_max": 177.8381901842
        }
    },
    "is_potentially_hazardous_asteroid": false,
    "close_approach_data": [
        {
            "close_approach_date": "2019-11-20",
            "close_approach_date_full": "2019-Nov-20 07:34",
            "epoch_date_close_approach": 1574235240000,
            "relative_velocity": {
                "kilometers_per_second": "10.0108477983",
                "kilometers_per_hour": "36039.0520739243",
                "miles_per_hour": "22393.2654400448"
            },
            "miss_distance": {
                "astronomical": "0.0428598821",
                "lunar": "16.6724941369",
                "kilometers": "6411747.070611127",
                "miles": "3984074.8856704726"
            },
            "orbiting_body": "Earth"
        }
    ],
    "orbital_data": {
        "orbit_id": "4",
        "orbit_determination_date": "2019-12-03 05:00:31",
        "first_observation_date": "2019-11-18",
        "last_observation_date": "2019-12-03",
        "data_arc_in_days": 15,
        "observations_used": 29,
        "orbit_uncertainty": "8",
        "minimum_orbit_intersection": ".0392134",
        "jupiter_tisserand_invariant": "4.623",
        "epoch_osculation": "2458810.5",
        "eccentricity": ".2966772732379856",
        "semi_major_axis": "1.421276272116701",
        "inclination": "15.50909575026515",
        "ascending_node_longitude": "239.5059557438011",
        "orbital_period": "618.8938760089825",
        "perihelion_distance": ".999615903187269",
        "perihelion_argument": "150.1216897689546",
        "aphelion_distance": "1.842936641046133",
        "perihelion_time": "2458783.643209907719",
        "mean_anomaly": "15.62213621432059",
        "mean_motion": ".5816829249006417",
        "equinox": "J2000",
        "orbit_class": {
            "orbit_class_type": "APO",
            "orbit_class_description": "Near-Earth asteroid orbits which cross the Earth’s orbit similar to that of 1862 Apollo",
            "orbit_class_range": "a (semi-major axis) > 1.0 AU; q (perihelion) < 1.017 AU"
        }
    },
    "is_sentry_object": false
}